{
  "67407": {
    "noradId": "67407",
    "tle": [
      "1 67407C 26005D   26043.78104167  .00059359  00000+0  14156-2 0   435",
      "2 67407  43.0006  20.1235 0001543 254.2291 337.4777 15.40653423    12"
    ]
  },
  "67408": {
    "noradId": "67408",
    "tle": [
      "1 67408C 26005E   26043.77687500  .00033242  00000+0  79363-3 0   437",
      "2 67408  43.0011  20.4792 0001703 253.5966 178.2755 15.40647097    16"
    ]
  },
  "67409": {
    "noradId": "67409",
    "tle": [
      "1 67409C 26005F   26043.77826389  .00008762  00000+0  20915-3 0   436",
      "2 67409  43.0004  20.2293 0001272 256.9682 282.1052 15.40675594    14"
    ]
  },
  "67410": {
    "noradId": "67410",
    "tle": [
      "1 67410C 26005G   26043.77826389  .00009390  00000+0  22412-3 0   430",
      "2 67410  43.0019  20.7129 0001471 272.4057  67.6329 15.40677308    13"
    ]
  },
  "67411": {
    "noradId": "67411",
    "tle": [
      "1 67411C 26005H   26043.77618056 -.00000655  00000+0 -15628-4 0   430",
      "2 67411  43.0007  20.0597 0001032 259.5848 342.5662 15.40688249    11"
    ]
  },
  "67412": {
    "noradId": "67412",
    "tle": [
      "1 67412C 26005J   26043.78243056  .00053708  00000+0  12810-2 0   439",
      "2 67412  43.0014  20.5074 0001082 257.9943 179.6947 15.40657722    15"
    ]
  },
  "67413": {
    "noradId": "67413",
    "tle": [
      "1 67413C 26005K   26043.77826389  .00009078  00000+0  21669-3 0   439",
      "2 67413  43.0010  20.4090 0001487 258.9266 205.5145 15.40676703    16"
    ]
  },
  "67414": {
    "noradId": "67414",
    "tle": [
      "1 67414C 26005L   26043.77826389 -.01306300  00000+0 -30621-1 0   437",
      "2 67414  43.0008  19.9914 0001126 264.5921  11.8489 15.42535275    12"
    ]
  },
  "67415": {
    "noradId": "67415",
    "tle": [
      "1 67415C 26005M   26043.77618056  .00006854  00000+0  16359-3 0   430",
      "2 67415  43.0005  20.3006 0001420 265.5950 237.0381 15.40679622    14"
    ]
  },
  "67416": {
    "noradId": "67416",
    "tle": [
      "1 67416C 26005N   26043.78104167  .00006050  00000+0  14440-3 0   432",
      "2 67416  43.0018  20.6347 0001471 264.2588 116.0806 15.40681089    17"
    ]
  },
  "67417": {
    "noradId": "67417",
    "tle": [
      "1 67417C 26005P   26043.78173611  .00005562  00000+0  13275-3 0   435",
      "2 67417  43.0006  20.1478 0001270 263.8840 319.3485 15.40684049    18"
    ]
  },
  "67418": {
    "noradId": "67418",
    "tle": [
      "1 67418C 26005Q   26043.77618056  .00021726  00000+0  51866-3 0   430",
      "2 67418  43.0007  20.1188 0001503 265.0909 312.1868 15.40660130    18"
    ]
  },
  "67419": {
    "noradId": "67419",
    "tle": [
      "1 67419C 26005R   26043.78243056  .00008547  00000+0  20401-3 0   433",
      "2 67419  43.0011  20.4148 0001658 252.1091 223.0245 15.40679344    19"
    ]
  },
  "67420": {
    "noradId": "67420",
    "tle": [
      "1 67420C 26005S   26043.78104167 -.02270500  00000+0 -48196-1 0   437",
      "2 67420  43.0007  19.9100 0001317 260.8897  57.4757 15.46460002    11"
    ]
  },
  "67421": {
    "noradId": "67421",
    "tle": [
      "1 67421C 26005T   26043.77895833  .00014381  00000+0  34327-3 0   436",
      "2 67421  43.0019  20.6766 0001594 252.7101 103.6231 15.40672333    14"
    ]
  },
  "67422": {
    "noradId": "67422",
    "tle": [
      "1 67422C 26005U   26043.78312500  .00008033  00000+0  19177-3 0   436",
      "2 67422  43.0010  20.3500 0001273 266.8142 237.0654 15.40674606    10"
    ]
  },
  "67423": {
    "noradId": "67423",
    "tle": [
      "1 67423C 26005V   26043.77618056  .00020051  00000+0  47859-3 0   433",
      "2 67423  43.0017  20.6320 0001530 265.5310 100.2530 15.40667885    15"
    ]
  },
  "67424": {
    "noradId": "67424",
    "tle": [
      "1 67424C 26005W   26043.78173611  .00016134  00000+0  38514-3 0   433",
      "2 67424  43.0014  20.5393 0001497 260.2482 161.2738 15.40668912    15"
    ]
  },
  "67425": {
    "noradId": "67425",
    "tle": [
      "1 67425C 26005X   26043.77965278  .00020246  00000+0  48326-3 0   432",
      "2 67425  43.0012  20.4901 0001497 268.0350 166.7970 15.40666952    18"
    ]
  },
  "67426": {
    "noradId": "67426",
    "tle": [
      "1 67426C 26005Y   26043.78173611  .00000999  00000+0  23843-4 0   437",
      "2 67426  43.0009  20.2967 0001401 268.6510 252.3844 15.40688475    10"
    ]
  },
  "67427": {
    "noradId": "67427",
    "tle": [
      "1 67427C 26005Z   26043.78312500  .00076882  00000+0  18355-2 0   434",
      "2 67427  43.0006  20.2279 0001067 252.1396 301.4386 15.40603981    18"
    ]
  },
  "67428": {
    "noradId": "67428",
    "tle": [
      "1 67428C 26005AA  26043.78034722 -.00013294  00000+0 -31730-3 0   435",
      "2 67428  43.0008  20.0627 0001372 244.1716   8.6562 15.40702073    16"
    ]
  },
  "67429": {
    "noradId": "67429",
    "tle": [
      "1 67429C 26005AB  26043.77965278  .00011167  00000+0  26662-3 0   437",
      "2 67429  43.0008  20.0052 0001142 266.7333   7.1615 15.40668112    17"
    ]
  },
  "67430": {
    "noradId": "67430",
    "tle": [
      "1 67430C 26005AC  26043.77687500  .00011483  00000+0  27411-3 0   432",
      "2 67430  43.0006  20.2034 0001533 266.0905 277.7182 15.40672714    18"
    ]
  },
  "67431": {
    "noradId": "67431",
    "tle": [
      "1 67431C 26005AD  26043.78173611 -.00003253  00000+0 -77633-4 0   437",
      "2 67431  43.0007  19.9319 0001637 252.0552  58.2603 15.40695010    13"
    ]
  },
  "67432": {
    "noradId": "67432",
    "tle": [
      "1 67432C 26005AE  26043.77826389 -.02263300  00000+0 -50249-1 0   438",
      "2 67432  43.0007  19.8799 0001130 258.5910  62.1240 15.45126246    18"
    ]
  },
  "67445": {
    "noradId": "67445",
    "tle": [
      "1 67445C 26008A   26043.77479167 -.02263900  00000+0 -48711-1 0   430",
      "2 67445  43.0005 346.5444 0001113 272.0762 131.2230 15.46054521    18"
    ]
  },
  "67446": {
    "noradId": "67446",
    "tle": [
      "1 67446C 26008B   26043.78034722 -.02265500  00000+0 -60846-1 0   437",
      "2 67446  43.0003 346.5182 0001170 272.2737 159.0023 15.39365571    13"
    ]
  },
  "67447": {
    "noradId": "67447",
    "tle": [
      "1 67447C 26008C   26043.77826389 -.02264900  00000+0 -46675-1 0   432",
      "2 67447  43.0000 346.0081 0000982 260.5835  11.5918 15.47321092    17"
    ]
  },
  "67448": {
    "noradId": "67448",
    "tle": [
      "1 67448C 26008D   26043.77826389 -.00075160  00000+0 -12778-2 0   437",
      "2 67448  43.0004 346.6194 0001611 257.4520 126.7072 15.50630889    10"
    ]
  },
  "67449": {
    "noradId": "67449",
    "tle": [
      "1 67449C 26008E   26043.77479167 -.02262500  00000+0 -58240-1 0   437",
      "2 67449  43.0000 346.2361 0000729 262.5083 265.0358 15.40668049    11"
    ]
  },
  "67450": {
    "noradId": "67450",
    "tle": [
      "1 67450C 26008F   26043.77895833 -.02275000  00000+0 -42774-1 0   435",
      "2 67450  43.0004 346.4852 0001279 273.8072 166.5015 15.49987810    12"
    ]
  },
  "67451": {
    "noradId": "67451",
    "tle": [
      "1 67451C 26008G   26043.77826389 -.02263300  00000+0 -48604-1 0   434",
      "2 67451  43.0003 346.6114 0001240 266.3614 120.5057 15.46110592    10"
    ]
  },
  "67452": {
    "noradId": "67452",
    "tle": [
      "1 67452C 26008H   26043.77895833 -.02264000  00000+0 -57277-1 0   439",
      "2 67452  43.0004 346.5223 0001072 270.1827 154.3962 15.41198712    19"
    ]
  },
  "67453": {
    "noradId": "67453",
    "tle": [
      "1 67453C 26008J   26043.77965278 -.02264000  00000+0 -69695-1 0   438",
      "2 67453  42.9995 346.1631 0000832 263.2446 302.7264 15.35096543    15"
    ]
  },
  "67454": {
    "noradId": "67454",
    "tle": [
      "1 67454C 26008K   26043.77756944 -.02293900  00000+0 -42748-1 0   438",
      "2 67454  43.0003 346.6599 0001561 272.7919  91.7691 15.50260731    14"
    ]
  },
  "67455": {
    "noradId": "67455",
    "tle": [
      "1 67455C 26008L   26043.77826389  .00014541  00000+0  24703-3 0   431",
      "2 67455  43.0003 346.5189 0001664 256.5619 167.9059 15.50562717    13"
    ]
  },
  "67456": {
    "noradId": "67456",
    "tle": [
      "1 67456C 26008M   26043.77409722  .00025769  00000+0  43779-3 0   438",
      "2 67456  43.0004 346.5112 0001774 255.9307 158.2242 15.50551419    14"
    ]
  },
  "67457": {
    "noradId": "67457",
    "tle": [
      "1 67457C 26008N   26043.78104167 -.02263600  00000+0 -55937-1 0   434",
      "2 67457  43.0002 346.2858 0000769 261.2584 265.9000 15.41913436    16"
    ]
  },
  "67458": {
    "noradId": "67458",
    "tle": [
      "1 67458C 26008P   26043.77548611 -.02265300  00000+0 -48617-1 0   436",
      "2 67458  42.9999 345.9392 0001000 263.0510  27.3148 15.46130305    11"
    ]
  },
  "67459": {
    "noradId": "67459",
    "tle": [
      "1 67459C 26008Q   26043.77618056 -.02266300  00000+0 -64993-1 0   434",
      "2 67459  43.0003 346.3949 0000934 264.1534 202.3046 15.37330624    14"
    ]
  },
  "67460": {
    "noradId": "67460",
    "tle": [
      "1 67460C 26008R   26043.77409722 -.02265700  00000+0 -62604-1 0   434",
      "2 67460  43.0002 346.3432 0000786 262.3725 218.4855 15.38488414    17"
    ]
  },
  "67461": {
    "noradId": "67461",
    "tle": [
      "1 67461C 26008S   26043.77618056 -.02028900  00000+0 -35926-1 0   433",
      "2 67461  43.0003 346.4929 0001119 273.9281 153.8274 15.51445228    15"
    ]
  },
  "67462": {
    "noradId": "67462",
    "tle": [
      "1 67462C 26008T   26043.77618056 -.02265300  00000+0 -60070-1 0   439",
      "2 67462  42.9999 346.1121 0000744 262.5099 318.9413 15.39759732    16"
    ]
  },
  "67463": {
    "noradId": "67463",
    "tle": [
      "1 67463C 26008U   26043.77826389 -.02263800  00000+0 -50002-1 0   437",
      "2 67463  43.0000 346.1112 0000861 261.6758 327.5580 15.45279158    11"
    ]
  }
}